STARLINK-37006          
1 68187U 26050W   26086.25003472  .00205847  00000+0  10293-2 0  9990
2 68187  53.1591 193.6589 0000719 107.5363 258.9188 15.80713284  3260
STARLINK-36340          
1 68188U 26050X   26086.25003472  .00044399  00000+0  22780-3 0  9999
2 68188  53.1591 193.6497 0001119 107.2437 263.3908 15.80828047  3098
STARLINK-36305          
1 68189U 26050Y   26086.25003472 -.00251908  00000+0 -13018-2 0  9991
2 68189  53.1590 193.6413 0001329 133.0205 241.8526 15.81010764  3153
STARLINK-37071          
1 68190U 26050Z   26086.25003472  .00166361  00000+0  83358-3 0  9994
2 68190  53.1590 193.6235 0001586 125.0943 258.3710 15.80786044  3262
STARLINK-37091          
1 68191U 26050AA  26086.25003472  .00106082  00000+0  53593-3 0  9997
2 68191  53.1590 193.6147 0000814  97.4961 290.2334 15.80811549  3266
STARLINK-37098          
1 68192U 26050AB  26086.25003472  .00124425  00000+0  62708-3 0  9997
2 68192  53.1592 193.6057 0001204 100.9616 291.0407 15.80796812  3265
STARLINK-37090          
1 68193U 26050AC  26086.25003472  .00144586  00000+0  72622-3 0  9994
2 68193  53.1594 193.5875 0001159 112.4072 288.1420 15.80802649  3266
STARLINK-37093          
1 68194U 26050AD  26086.25003472  .00030775  00000+0  15918-3 0  9994
2 68194  53.1592 193.6318 0001255 109.8202 269.3548 15.80835228  3261
STARLINK-37058          
1 68195U 26050AE  26086.25003472  .00106128  00000+0  53620-3 0  9993
2 68195  53.1590 193.5964 0001240 123.7908 272.4878 15.80809848  3268
YAOGAN-50 02            
1 68196U 26051A   26086.26903683  .00000265  00000+0  71071-4 0  9995
2 68196 141.9878 291.9901 0001207 234.5625 125.4982 13.83267519  1645
CZ-6A R/B               
1 68197U 26051B   26086.19996931  .00000972  00000+0  11842-3 0  9990
2 68197 142.0321 297.5974 0186454 176.7609 183.4355 14.56368207  1713
2026-052A               
1 68198U 26052A   26085.62264051  .00000448  00000+0  31529-4 0  9993
2 68198  97.5376 161.7059 0012977 225.7685 134.2480 15.09879016  1583
YUXING-3 06             
1 68199U 26052B   26086.28424108  .00005295  00000+0  32863-3 0  9994
2 68199  97.5373 162.3586 0011985 225.2880 134.7374 15.10071172  1680
2026-052C               
1 68200U 26052C   26086.28326691  .00004673  00000+0  28953-3 0  9999
2 68200  97.5370 162.3613 0011728 227.7990 132.2244 15.10198749  1673
2026-052D               
1 68201U 26052D   26086.28205463  .00007887  00000+0  48321-3 0  9994
2 68201  97.5373 162.3595 0010870 223.9147 136.1220 15.10396879  1687
2026-052E               
1 68202U 26052E   26086.28203459  .00007565  00000+0  46368-3 0  9990
2 68202  97.5373 162.3613 0010745 228.2318 131.7994 15.10396903  1685
