[{"OBJECT_NAME":"STARLINK-37006","OBJECT_ID":"2026-050W","EPOCH":"2026-03-27T06:00:02.999808","MEAN_MOTION":15.80713284,"ECCENTRICITY":7.198e-5,"INCLINATION":53.1591,"RA_OF_ASC_NODE":193.6589,"ARG_OF_PERICENTER":107.5363,"MEAN_ANOMALY":258.9188,"EPHEMERIS_TYPE":0,"CLASSIFICATION_TYPE":"U","NORAD_CAT_ID":68187,"ELEMENT_SET_NO":999,"REV_AT_EPOCH":326,"BSTAR":0.001029301,"MEAN_MOTION_DOT":0.00205847,"MEAN_MOTION_DDOT":0},{"OBJECT_NAME":"STARLINK-36340","OBJECT_ID":"2026-050X","EPOCH":"2026-03-27T06:00:02.999808","MEAN_MOTION":15.80828047,"ECCENTRICITY":0.00011199,"INCLINATION":53.1591,"RA_OF_ASC_NODE":193.6497,"ARG_OF_PERICENTER":107.2437,"MEAN_ANOMALY":263.3908,"EPHEMERIS_TYPE":0,"CLASSIFICATION_TYPE":"U","NORAD_CAT_ID":68188,"ELEMENT_SET_NO":999,"REV_AT_EPOCH":309,"BSTAR":0.00022779905,"MEAN_MOTION_DOT":0.00044399,"MEAN_MOTION_DDOT":0},{"OBJECT_NAME":"STARLINK-36305","OBJECT_ID":"2026-050Y","EPOCH":"2026-03-27T06:00:02.999808","MEAN_MOTION":15.81010764,"ECCENTRICITY":0.00013294,"INCLINATION":53.159,"RA_OF_ASC_NODE":193.6413,"ARG_OF_PERICENTER":133.0205,"MEAN_ANOMALY":241.8526,"EPHEMERIS_TYPE":0,"CLASSIFICATION_TYPE":"U","NORAD_CAT_ID":68189,"ELEMENT_SET_NO":999,"REV_AT_EPOCH":315,"BSTAR":-0.0013018443,"MEAN_MOTION_DOT":-0.00251908,"MEAN_MOTION_DDOT":0},{"OBJECT_NAME":"STARLINK-37071","OBJECT_ID":"2026-050Z","EPOCH":"2026-03-27T06:00:02.999808","MEAN_MOTION":15.80786044,"ECCENTRICITY":0.00015861,"INCLINATION":53.159,"RA_OF_ASC_NODE":193.6235,"ARG_OF_PERICENTER":125.0943,"MEAN_ANOMALY":258.371,"EPHEMERIS_TYPE":0,"CLASSIFICATION_TYPE":"U","NORAD_CAT_ID":68190,"ELEMENT_SET_NO":999,"REV_AT_EPOCH":326,"BSTAR":0.00083357939,"MEAN_MOTION_DOT":0.00166361,"MEAN_MOTION_DDOT":0},{"OBJECT_NAME":"STARLINK-37091","OBJECT_ID":"2026-050AA","EPOCH":"2026-03-27T06:00:02.999808","MEAN_MOTION":15.80811549,"ECCENTRICITY":8.14e-5,"INCLINATION":53.159,"RA_OF_ASC_NODE":193.6147,"ARG_OF_PERICENTER":97.4961,"MEAN_ANOMALY":290.2334,"EPHEMERIS_TYPE":0,"CLASSIFICATION_TYPE":"U","NORAD_CAT_ID":68191,"ELEMENT_SET_NO":999,"REV_AT_EPOCH":326,"BSTAR":0.00053593214,"MEAN_MOTION_DOT":0.00106082,"MEAN_MOTION_DDOT":0},{"OBJECT_NAME":"STARLINK-37098","OBJECT_ID":"2026-050AB","EPOCH":"2026-03-27T06:00:02.999808","MEAN_MOTION":15.80796812,"ECCENTRICITY":0.00012047,"INCLINATION":53.1592,"RA_OF_ASC_NODE":193.6057,"ARG_OF_PERICENTER":100.9616,"MEAN_ANOMALY":291.0407,"EPHEMERIS_TYPE":0,"CLASSIFICATION_TYPE":"U","NORAD_CAT_ID":68192,"ELEMENT_SET_NO":999,"REV_AT_EPOCH":326,"BSTAR":0.00062707934,"MEAN_MOTION_DOT":0.00124425,"MEAN_MOTION_DDOT":0},{"OBJECT_NAME":"STARLINK-37090","OBJECT_ID":"2026-050AC","EPOCH":"2026-03-27T06:00:02.999808","MEAN_MOTION":15.80802649,"ECCENTRICITY":0.0001159,"INCLINATION":53.1594,"RA_OF_ASC_NODE":193.5875,"ARG_OF_PERICENTER":112.4072,"MEAN_ANOMALY":288.142,"EPHEMERIS_TYPE":0,"CLASSIFICATION_TYPE":"U","NORAD_CAT_ID":68193,"ELEMENT_SET_NO":999,"REV_AT_EPOCH":326,"BSTAR":0.00072622461,"MEAN_MOTION_DOT":0.00144586,"MEAN_MOTION_DDOT":0},{"OBJECT_NAME":"STARLINK-37093","OBJECT_ID":"2026-050AD","EPOCH":"2026-03-27T06:00:02.999808","MEAN_MOTION":15.80835228,"ECCENTRICITY":0.00012557,"INCLINATION":53.1592,"RA_OF_ASC_NODE":193.6318,"ARG_OF_PERICENTER":109.8202,"MEAN_ANOMALY":269.3548,"EPHEMERIS_TYPE":0,"CLASSIFICATION_TYPE":"U","NORAD_CAT_ID":68194,"ELEMENT_SET_NO":999,"REV_AT_EPOCH":326,"BSTAR":0.0001591803,"MEAN_MOTION_DOT":0.00030775,"MEAN_MOTION_DDOT":0},{"OBJECT_NAME":"STARLINK-37058","OBJECT_ID":"2026-050AE","EPOCH":"2026-03-27T06:00:02.999808","MEAN_MOTION":15.80809848,"ECCENTRICITY":0.00012403,"INCLINATION":53.159,"RA_OF_ASC_NODE":193.5964,"ARG_OF_PERICENTER":123.7908,"MEAN_ANOMALY":272.4878,"EPHEMERIS_TYPE":0,"CLASSIFICATION_TYPE":"U","NORAD_CAT_ID":68195,"ELEMENT_SET_NO":999,"REV_AT_EPOCH":326,"BSTAR":0.00053619898,"MEAN_MOTION_DOT":0.00106128,"MEAN_MOTION_DDOT":0},{"OBJECT_NAME":"YAOGAN-50 02","OBJECT_ID":"2026-051A","EPOCH":"2026-03-27T06:27:24.782112","MEAN_MOTION":13.83267519,"ECCENTRICITY":0.00012071,"INCLINATION":141.9878,"RA_OF_ASC_NODE":291.9901,"ARG_OF_PERICENTER":234.5625,"MEAN_ANOMALY":125.4982,"EPHEMERIS_TYPE":0,"CLASSIFICATION_TYPE":"U","NORAD_CAT_ID":68196,"ELEMENT_SET_NO":999,"REV_AT_EPOCH":164,"BSTAR":7.1070698e-5,"MEAN_MOTION_DOT":2.65e-6,"MEAN_MOTION_DDOT":0},{"OBJECT_NAME":"CZ-6A R/B","OBJECT_ID":"2026-051B","EPOCH":"2026-03-27T04:47:57.348384","MEAN_MOTION":14.56368207,"ECCENTRICITY":0.01864541,"INCLINATION":142.0321,"RA_OF_ASC_NODE":297.5974,"ARG_OF_PERICENTER":176.7609,"MEAN_ANOMALY":183.4355,"EPHEMERIS_TYPE":0,"CLASSIFICATION_TYPE":"U","NORAD_CAT_ID":68197,"ELEMENT_SET_NO":999,"REV_AT_EPOCH":171,"BSTAR":0.00011842124,"MEAN_MOTION_DOT":9.72e-6,"MEAN_MOTION_DDOT":0},{"OBJECT_NAME":"2026-052A","OBJECT_ID":"2026-052A","EPOCH":"2026-03-26T14:56:36.140064","MEAN_MOTION":15.09879016,"ECCENTRICITY":0.00129773,"INCLINATION":97.5376,"RA_OF_ASC_NODE":161.7059,"ARG_OF_PERICENTER":225.7685,"MEAN_ANOMALY":134.248,"EPHEMERIS_TYPE":0,"CLASSIFICATION_TYPE":"U","NORAD_CAT_ID":68198,"ELEMENT_SET_NO":999,"REV_AT_EPOCH":158,"BSTAR":3.152876e-5,"MEAN_MOTION_DOT":4.48e-6,"MEAN_MOTION_DDOT":0},{"OBJECT_NAME":"YUXING-3 06","OBJECT_ID":"2026-052B","EPOCH":"2026-03-27T06:49:18.429312","MEAN_MOTION":15.10071172,"ECCENTRICITY":0.00119857,"INCLINATION":97.5373,"RA_OF_ASC_NODE":162.3586,"ARG_OF_PERICENTER":225.288,"MEAN_ANOMALY":134.7374,"EPHEMERIS_TYPE":0,"CLASSIFICATION_TYPE":"U","NORAD_CAT_ID":68199,"ELEMENT_SET_NO":999,"REV_AT_EPOCH":168,"BSTAR":0.00032862674,"MEAN_MOTION_DOT":5.295e-5,"MEAN_MOTION_DDOT":0},{"OBJECT_NAME":"2026-052C","OBJECT_ID":"2026-052C","EPOCH":"2026-03-27T06:47:54.261024","MEAN_MOTION":15.10198749,"ECCENTRICITY":0.00117286,"INCLINATION":97.537,"RA_OF_ASC_NODE":162.3613,"ARG_OF_PERICENTER":227.799,"MEAN_ANOMALY":132.2244,"EPHEMERIS_TYPE":0,"CLASSIFICATION_TYPE":"U","NORAD_CAT_ID":68200,"ELEMENT_SET_NO":999,"REV_AT_EPOCH":167,"BSTAR":0.00028953194,"MEAN_MOTION_DOT":4.673e-5,"MEAN_MOTION_DDOT":0},{"OBJECT_NAME":"2026-052D","OBJECT_ID":"2026-052D","EPOCH":"2026-03-27T06:46:09.520032","MEAN_MOTION":15.10396879,"ECCENTRICITY":0.00108707,"INCLINATION":97.5373,"RA_OF_ASC_NODE":162.3595,"ARG_OF_PERICENTER":223.9147,"MEAN_ANOMALY":136.122,"EPHEMERIS_TYPE":0,"CLASSIFICATION_TYPE":"U","NORAD_CAT_ID":68201,"ELEMENT_SET_NO":999,"REV_AT_EPOCH":168,"BSTAR":0.00048320564,"MEAN_MOTION_DOT":7.887e-5,"MEAN_MOTION_DDOT":0},{"OBJECT_NAME":"2026-052E","OBJECT_ID":"2026-052E","EPOCH":"2026-03-27T06:46:07.788576","MEAN_MOTION":15.10396903,"ECCENTRICITY":0.00107456,"INCLINATION":97.5373,"RA_OF_ASC_NODE":162.3613,"ARG_OF_PERICENTER":228.2318,"MEAN_ANOMALY":131.7994,"EPHEMERIS_TYPE":0,"CLASSIFICATION_TYPE":"U","NORAD_CAT_ID":68202,"ELEMENT_SET_NO":999,"REV_AT_EPOCH":168,"BSTAR":0.00046367802,"MEAN_MOTION_DOT":7.565e-5,"MEAN_MOTION_DDOT":0}]
